DMSP 5D-3 F16 (USA 172) 
1 28054U 03048A   26185.87091257  .00000021  00000+0  34450-4 0  9997
2 28054  98.9886 209.8158 0008207  96.3111  77.7231 14.14484582171984
METEOSAT-9 (MSG-2)      
1 28912U 05049B   26185.73031617  .00000133  00000+0  00000+0 0  9995
2 28912   9.3983  53.9918 0002388   0.4955 176.8994  1.00268028  7171
DMSP 5D-3 F17 (USA 191) 
1 29522U 06050A   26185.77679319  .00000080  00000+0  63527-4 0  9996
2 29522  98.7381 191.9870 0010352  12.6219 347.5212 14.14995555 14912
FENGYUN 3A              
1 32958U 08026A   26185.80916295  .00000136  00000+0  84879-4 0  9994
2 32958  98.6885 126.3129 0009874  78.4956 281.7329 14.19575153937905
GOES 14                 
1 35491U 09033A   26185.96109383 -.00000332  00000+0  00000+0 0  9995
2 35491   1.7327  82.8376 0002142  30.2434 287.2365  1.00104012  6764
DMSP 5D-3 F18 (USA 210) 
1 35951U 09057A   26185.89073443  .00000322  00000+0  18995-3 0  9995
2 35951  98.9047 166.6220 0010605 195.0087 165.0773 14.14907247862090
EWS-G2 (GOES 15)        
1 36411U 10008A   26185.93154414  .00000034  00000+0  00000+0 0  9992
2 36411   1.3233  82.6058 0005351  47.9655 191.1647  1.00268353 59818
COMS 1                  
1 36744U 10032A   26185.86445056 -.00000135  00000+0  00000+0 0  9998
2 36744   4.8475  75.1472 0011639  14.1480 147.8491  0.99169370 51260
FENGYUN 3B              
1 37214U 10059A   26185.99452757  .00000235  00000+0  14450-3 0  9998
2 37214  98.9605 232.0838 0022848 134.4019 343.2835 14.14845813809945
SUOMI NPP               
1 37849U 11061A   26185.82106705  .00000109  00000+0  72859-4 0  9995
2 37849  98.7955 126.5769 0000616 295.0250  65.0862 14.19521234760943
METEOSAT-10 (MSG-3)     
1 38552U 12035B   26185.86384389  .00000004  00000+0  00000+0 0  9997
2 38552   4.7106  60.9319 0001442  17.2470 155.7782  1.00269637 51031
METOP-B                 
1 38771U 12049A   26185.85774774  .00000136  00000+0  81853-4 0  9991
2 38771  98.6494 237.0037 0001209 317.1555  42.9529 14.21444425715778
INSAT-3D                
1 39216U 13038B   26183.85162303 -.00000329  00000+0  00000+0 0  9997
2 39216   1.9642  82.3574 0001056  15.1644 259.4386  1.00268722 47238
FENGYUN 3C              
1 39260U 13052A   26185.99485484  .00000094  00000+0  69060-4 0  9991
2 39260  98.4997 159.0528 0014180 336.8271  23.2263 14.15759183661085
METEOR-M 2              
1 40069U 14037A   26185.95424877 -.00000063  00000+0 -96800-5 0  9990
2 40069  98.5127 161.0643 0005788 358.0310   2.0844 14.21466389621845
HIMAWARI-8              
1 40267U 14060A   26185.89168359 -.00000263  00000+0  00000+0 0  9991
2 40267   0.0174  24.8367 0000983  90.5416 269.2001  1.00270896 42939
FENGYUN 2G              
1 40367U 14090A   26185.98330285 -.00000290  00000+0  00000+0 0  9994
2 40367   5.6811  72.6060 0003651 150.0888 153.7970  1.00265591 42174
METEOSAT-11 (MSG-4)     
1 40732U 15034A   26185.86566390  .00000073  00000+0  00000+0 0  9992
2 40732   3.2446  70.9999 0002245 349.9240 182.8805  1.00268624  7394
ELEKTRO-L 2             
1 41105U 15074A   26185.93224534 -.00000107  00000+0  00000+0 0  9999
2 41105   6.7363  70.3059 0000617 256.6108 277.0927  1.00273703 38686
SENTINEL-3A             
1 41335U 16011A   26185.74903969  .00000171  00000+0  88708-4 0  9997
2 41335  98.6242 252.8799 0001424  93.6283 266.5060 14.26737941540562
INSAT-3DR               
1 41752U 16054A   26183.45463633 -.00000066  00000+0  00000+0 0  9990
2 41752   0.1421  85.9447 0010094 186.2693 245.9301  1.00272241 35972
HIMAWARI-9              
1 41836U 16064A   26183.69547150 -.00000265  00000+0  00000+0 0  9998
2 41836   0.0302 267.9360 0001438 225.4185 178.4790  1.00268231 35361
GOES 16                 
1 41866U 16071A   26185.91440582 -.00000078  00000+0  00000+0 0  9999
2 41866   0.3816  85.6785 0000511  49.1054  12.6360  1.00271871 35287
FENGYUN 4A              
1 41882U 16077A   26185.95962049 -.00000345  00000+0  00000+0 0  9991
2 41882   2.3650  80.0930 0007975 157.8724 154.2256  1.00274716 35105
CYGFM05                 
1 41884U 16078A   26185.93944865  .00039415  00000+0  51644-3 0  9991
2 41884  34.9560 142.9683 0007818 303.6053  56.3925 15.57470867531527
CYGFM04                 
1 41885U 16078B   26185.91755743  .00053309  00000+0  57356-3 0  9999
2 41885  34.9321 109.8929 0006120 339.0908  20.9567 15.62567488531773
CYGFM02                 
1 41886U 16078C   26185.88337694  .00062141  00000+0  58863-3 0  9995
2 41886  34.9400 104.1247 0006925 342.5464  17.5025 15.65738946531944
CYGFM01                 
1 41887U 16078D   26185.59992590  .00046265  00000+0  59021-3 0  9992
2 41887  34.9394 146.1326 0007827 295.2783  64.7131 15.58151423531427
CYGFM08                 
1 41888U 16078E   26185.91266751  .00048221  00000+0  55180-3 0  9998
2 41888  34.9427 123.1589 0008247 328.3939  31.6290 15.60983427531743
CYGFM07                 
1 41890U 16078G   26185.87068861  .00049298  00000+0  56210-3 0  9998
2 41890  34.9443 111.7650 0006513 339.8254  20.2213 15.61088401531767
CYGFM03                 
1 41891U 16078H   26185.90574197  .00049179  00000+0  56094-3 0  9995
2 41891  34.9397 113.4624 0006471 326.7617  33.2701 15.61080256531741
